NORAD_CAT_ID,OBJECT_NAME,OBJECT_TYPE,EPOCH,MEAN_MOTION,ECCENTRICITY,INCLINATION,RA_OF_ASC_NODE,ARG_OF_PERICENTER,MEAN_ANOMALY,BSTAR,MEAN_MOTION_DOT,MEAN_MOTION_DDOT,TLE_LINE0,TLE_LINE1,TLE_LINE2,SEMIMAJOR_AXIS,PERIOD,APOGEE,PERIGEE,DECAYED
53840.0,STARLINK-4766,PAYLOAD,2022-10-14 18:00:00,15.73203466,0.0001348,53.2175,131.5647,112.3211,90.2393,1.592e-05,1.615e-05,0.0,0 STARLINK-4766,1 53840U 22114Y   22287.75001157  .00001615  00000-0  15920-4 0  9991,2 53840  53.2175 131.5647 0001348 112.3211  90.2393 15.73203466  1306,6727.885,91.533,350.657,348.843,0.0
53840.0,STARLINK-4766,PAYLOAD,2022-10-15 14:00:01,15.73184057,0.0001286999999999,53.2158,127.4356,117.8026,127.1572,0.00012655,0.00017165,0.0,0 STARLINK-4766,1 53840U 22114Y   22288.58334491  .00017165  00000-0  12655-3 0  9991,2 53840  53.2158 127.4356 0001287 117.8026 127.1572 15.73184057  1307,6727.941,91.534,350.672,348.94,0.0
53840.0,STARLINK-4766,PAYLOAD,2022-10-15 22:00:01,15.73205179,0.0001228,53.2174,125.7923,141.3795,192.5154,-1.2527e-05,-2.378e-05,0.0,0 STARLINK-4766,1 53840U 22114Y   22288.91668981 -.00002378  00000-0 -12527-4 0  9993,2 53840  53.2174 125.7923 0001228 141.3795 192.5154 15.73205179  4805,6727.88,91.533,350.57199999999995,348.9190000000001,0.0
53840.0,STARLINK-4766,PAYLOAD,2022-10-16 14:00:01,15.73164346,0.0001195,53.2159,122.4874,116.2972,35.3467,0.00048218,0.00067492,0.0,0 STARLINK-4766,1 53840U 22114Y   22289.58334491  .00067492  00000-0  48218-3 0  9994,2 53840  53.2159 122.4874 0001195 116.2972  35.3467 15.73164346  4911,6727.996999999999,91.535,350.666,349.05800000000005,0.0
53840.0,STARLINK-4766,PAYLOAD,2022-10-16 22:00:00,15.73187997,0.0001155,53.2162,120.8406,96.4065,144.1576,0.00010209,0.00013724,0.0,0 STARLINK-4766,1 53840U 22114Y   22289.91667824  .00013724  00000-0  10209-3 0  9998,2 53840  53.2162 120.8406 0001155  96.4065 144.1576 15.73187997  1303,6727.929,91.534,350.571,349.017,0.0
53840.0,STARLINK-4766,PAYLOAD,2022-10-17 06:00:00,15.73231737,0.000104,53.2164,119.1895,107.3807,222.091,-0.00037893,-0.00053533,0.0,0 STARLINK-4766,1 53840U 22114Y   22290.25001157 -.00053533  00000-0 -37893-3 0  9990,2 53840  53.2164 119.1895 0001040 107.3807 222.0910 15.73231737  5019,6727.805,91.531,350.369,348.97,0.0
53840.0,STARLINK-4766,PAYLOAD,2022-10-17 14:00:01,15.73227623,0.0001026,53.2161,117.5395,111.5107,306.9569,0.00037446,0.00052323,0.0,0 STARLINK-4766,1 53840U 22114Y   22290.58334491  .00052323  00000-0  37446-3 0  9994,2 53840  53.2161 117.5395 0001026 111.5107 306.9569 15.73227623  5063,6727.816,91.532,350.372,348.991,0.0
53840.0,STARLINK-4766,PAYLOAD,2022-10-17 22:00:00,15.73231939,0.0001088,53.2156,115.8917,90.5092,56.917,-0.00044107,-0.00062148,0.0,0 STARLINK-4766,1 53840U 22114Y   22290.91667824 -.00062148  00000-0 -44107-3 0  9990,2 53840  53.2156 115.8917 0001088  90.5092  56.9170 15.73231939  1303,6727.804,91.531,350.401,348.93699999999984,0.0
53840.0,STARLINK-4766,PAYLOAD,2022-10-18 14:00:01,15.73155234,0.0001042999999999,53.2157,112.5909,103.0435,222.2265,0.00034558,0.00048064,0.0,0 STARLINK-4766,1 53840U 22114Y   22291.58334491  .00048064  00000-0  34558-3 0  9993,2 53840  53.2157 112.5909 0001043 103.0435 222.2265 15.73155234  5222,6728.023,91.536,350.59,349.186,0.0
53840.0,STARLINK-4766,PAYLOAD,2022-10-18 22:00:00,15.73202467,0.0001175,53.2176,110.9464,100.1922,314.0467,2.4255e-05,2.786e-05,0.0,0 STARLINK-4766,1 53840U 22114Y   22291.91667824  .00002786  00000-0  24255-4 0  9994,2 53840  53.2176 110.9464 0001175 100.1922 314.0467 15.73202467  5276,6727.888000000001,91.533,350.5440000000001,348.963,0.0
53840.0,STARLINK-4766,PAYLOAD,2022-10-19 08:00:01,15.73178459,0.0001125999999999,53.2156,108.8793,93.3053,162.0475,0.00038688,0.00053975,0.0,0 STARLINK-4766,1 53840U 22114Y   22292.33334491  .00053975  00000-0  38688-3 0  9992,2 53840  53.2156 108.8793 0001126  93.3053 162.0475 15.73178459  5340,6727.956999999999,91.534,350.579,349.064,0.0
53840.0,STARLINK-4766,PAYLOAD,2022-10-19 14:00:01,15.73232177,0.0001304,53.2156,107.6427,91.2523,140.795,-0.00030798,-0.00043678,0.0,0 STARLINK-4766,1 53840U 22114Y   22292.58334491 -.00043678  00000-0 -30798-3 0  9994,2 53840  53.2156 107.6427 0001304  91.2523 140.7950 15.73232177  1309,6727.803000000001,91.531,350.546,348.791,0.0
53840.0,STARLINK-4766,PAYLOAD,2022-10-19 22:00:00,15.7322559,0.000121,53.2164,105.9969,89.2849,231.7213,2.4921e-05,2.882e-05,0.0,0 STARLINK-4766,1 53840U 22114Y   22292.91667824  .00002882  00000-0  24921-4 0  9992,2 53840  53.2164 105.9969 0001210  89.2849 231.7213 15.73225590  1308,6727.821999999999,91.532,350.501,348.87300000000016,0.0
53840.0,STARLINK-4766,PAYLOAD,2022-10-20 06:00:00,15.73241717,0.0001149,53.215,104.3434,88.9164,321.0442,-0.00049313,-0.00069381,0.0,0 STARLINK-4766,1 53840U 22114Y   22293.25001157 -.00069381  00000-0 -49313-3 0  9991,2 53840  53.2150 104.3434 0001149  88.9164 321.0442 15.73241717  5489,6727.776,91.531,350.414,348.86800000000005,0.0
53840.0,STARLINK-4766,PAYLOAD,2022-10-20 14:00:01,15.73194683,0.0001228,53.2156,102.6943,89.3204,49.5882,0.00021605,0.00029802,0.0,0 STARLINK-4766,1 53840U 22114Y   22293.58334491  .00029802  00000-0  21605-3 0  9993,2 53840  53.2156 102.6943 0001228  89.3204  49.5882 15.73194683  1305,6727.91,91.533,350.602,348.949,0.0
53840.0,STARLINK-4766,PAYLOAD,2022-10-20 22:00:00,15.73156727,0.0001165999999999,53.2155,101.0465,69.9573,157.86,0.00016183,0.0002210999999999,0.0,0 STARLINK-4766,1 53840U 22114Y   22293.91667824  .00022110  00000-0  16183-3 0  9999,2 53840  53.2155 101.0465 0001166  69.9573 157.8600 15.73156727  1308,6728.019,91.536,350.668,349.099,0.0
53840.0,STARLINK-4766,PAYLOAD,2022-10-21 06:00:00,15.731897,9.77e-05,53.2159,99.395,76.8106,239.9375,0.00020169,0.00027767,0.0,0 STARLINK-4766,1 53840U 22114Y   22294.25001157  .00027767  00000-0  20169-3 0  9990,2 53840  53.2159  99.3950 0000977  76.8106 239.9375 15.73189700  5647,6727.925,91.534,350.44699999999995,349.13199999999995,0.0
53840.0,STARLINK-4766,PAYLOAD,2022-10-21 14:00:01,15.73227773,0.0001147999999999,53.2157,97.7458,77.5329,328.2035,3.8837e-05,4.84e-05,0.0,0 STARLINK-4766,1 53840U 22114Y   22294.58334491  .00004840  00000-0  38837-4 0  9995,2 53840  53.2157  97.7458 0001148  77.5329 328.2035 15.73227773  5699,6727.816,91.532,350.45300000000015,348.909,0.0
53840.0,STARLINK-4766,PAYLOAD,2022-10-21 22:00:00,15.73227149,0.0001242,53.2143,96.0972,62.2936,72.3793,-8.7815e-05,-0.00012939,0.0,0 STARLINK-4766,1 53840U 22114Y   22294.91667824 -.00012939  00000-0 -87815-4 0  9991,2 53840  53.2143  96.0972 0001242  62.2936  72.3793 15.73227149  5759,6727.818,91.532,350.51800000000014,348.847,0.0
53840.0,STARLINK-4766,PAYLOAD,2022-10-22 14:00:01,15.73223188,0.0001174,53.2146,92.7964,68.0412,244.4883,1.7692e-05,1.866e-05,0.0,0 STARLINK-4766,1 53840U 22114Y   22295.58334491  .00001866  00000-0  17692-4 0  9997,2 53840  53.2146  92.7964 0001174  68.0412 244.4883 15.73223188  1301,6727.829000000002,91.532,350.4840000000001,348.904,0.0
53840.0,STARLINK-4766,PAYLOAD,2022-10-22 22:00:00,15.73210697,0.0001195,53.2145,91.148,51.5196,349.9931,0.00057704,0.00081187,0.0,0 STARLINK-4766,1 53840U 22114Y   22295.91667824  .00081187  00000-0  57704-3 0  9994,2 53840  53.2145  91.1480 0001195  51.5196 349.9931 15.73210697  1301,6727.865,91.533,350.534,348.926,0.0
53840.0,STARLINK-4766,PAYLOAD,2022-10-23 00:00:02,15.73235686,0.0001169,53.2145,90.7351,51.2975,102.5176,0.00030612,0.00042626,0.0,0 STARLINK-4766,1 53840U 22114Y   22296.00002315  .00042626  00000-0  30612-3 0  9997,2 53840  53.2145  90.7351 0001169  51.2975 102.5176 15.73235686  5927,6727.793000000002,91.531,350.445,348.872,0.0
53840.0,STARLINK-4766,PAYLOAD,2022-10-23 14:00:01,15.73288617,0.000123,53.2146,87.8474,57.1373,162.3404,-0.00065116,-0.00091364,0.0,0 STARLINK-4766,1 53840U 22114Y   22296.58334491 -.00091364  00000-0 -65116-3 0  9995,2 53840  53.2146  87.8474 0001230  57.1373 162.3404 15.73288617  1305,6727.643,91.528,350.335,348.68,0.0
53840.0,STARLINK-4766,PAYLOAD,2022-10-23 22:00:00,15.73214482,0.000131,53.214,86.1987,45.3121,263.1565,-0.00040244,-0.00056755,0.0,0 STARLINK-4766,1 53840U 22114Y   22296.91667824 -.00056755  00000-0 -40244-3 0  9991,2 53840  53.2140  86.1987 0001310  45.3121 263.1565 15.73214482  1306,6727.854,91.532,350.6,348.838,0.0
53840.0,STARLINK-4766,PAYLOAD,2022-10-24 14:00:01,15.73129833,0.0001404,53.2145,82.8986,54.9355,71.3105,0.00028508,0.00039457,0.0,0 STARLINK-4766,1 53840U 22114Y   22297.58334491  .00039457  00000-0  28508-3 0  9993,2 53840  53.2145  82.8986 0001404  54.9355  71.3105 15.73129833  6176,6728.095,91.537,350.905,349.016,0.0
53840.0,STARLINK-4766,PAYLOAD,2022-10-24 22:00:00,15.73149756,0.0001467,53.2145,81.2501,44.3591,170.7389,0.00060853,0.00085472,0.0,0 STARLINK-4766,1 53840U 22114Y   22297.91667824  .00085472  00000-0  60853-3 0  9996,2 53840  53.2145  81.2501 0001467  44.3591 170.7389 15.73149756  1300,6728.038000000001,91.536,350.89,348.916,0.0
53840.0,STARLINK-4766,PAYLOAD,2022-10-25 14:00:01,15.73207424,0.0001441999999999,53.2149,77.9503,41.8127,351.0986,5.8739e-06,2.04e-06,0.0,0 STARLINK-4766,1 53840U 22114Y   22298.58334491  .00000204  00000-0  58739-5 0  9993,2 53840  53.2149  77.9503 0001442  41.8127 351.0986 15.73207424  1302,6727.874,91.533,350.709,348.769,0.0
53840.0,STARLINK-4766,PAYLOAD,2022-10-25 22:00:01,15.73199141,0.0001647,53.2144,76.3014,40.1666,81.7498,5.9305e-05,7.709999999999999e-05,0.0,0 STARLINK-4766,1 53840U 22114Y   22298.91668981  .00007710  00000-0  59305-4 0  9992,2 53840  53.2144  76.3014 0001647  40.1666  81.7498 15.73199141  1305,6727.898,91.533,350.871,348.655,0.0
53840.0,STARLINK-4766,PAYLOAD,2022-10-26 14:00:01,15.73207141,0.0001789,53.215,73.0018,48.764,250.9755,0.00015648,0.00021403,0.0,0 STARLINK-4766,1 53840U 22114Y   22299.58334491  .00021403  00000-0  15648-3 0  9998,2 53840  53.2150  73.0018 0001789  48.7640 250.9755 15.73207141  1309,6727.875,91.533,350.9430000000001,348.536,0.0
